start=new Date('2021-12-15T00:00:00.000Z').valueOf();
sats=[{"TLE_LINE1":"1 47919U 21021BM  21348.53128223 -.00000472  00000-0 -12780-4 0  9997","OBJECT_ID":"2021-021BM","MEAN_MOTION":"15.06390436","RA_OF_ASC_NODE":"22.5817","COUNTRY_CODE":"US","EPOCH":"2021-12-14T12:45:02.784672","TIME_SYSTEM":"UTC","PERIOD":"95.593","INCLINATION":"53.0561","CENTER_NAME":"EARTH","GP_ID":"191695666","DECAY_DATE":null,"FILE":"3240057","MEAN_ANOMALY":"289.7810","ECCENTRICITY":"0.00013520","REV_AT_EPOCH":"4299","NORAD_CAT_ID":"47919","OBJECT_TYPE":"PAYLOAD","SEMIMAJOR_AXIS":"6925.378","EPHEMERIS_TYPE":"0","CLASSIFICATION_TYPE":"U","APOAPSIS":"548.179","MEAN_ELEMENT_THEORY":"SGP4","REF_FRAME":"TEME","ELEMENT_SET_NO":"999","SITE":"AFETR","TLE_LINE2":"2 47919  53.0561  22.5817 0001352  70.3325 289.7810 15.06390436 42994","MEAN_MOTION_DDOT":"0.0000000000000","LAUNCH_DATE":"2021-03-14","RCS_SIZE":"LARGE","BSTAR":"-0.00001278000000","MEAN_MOTION_DOT":"-0.00000472","PERIAPSIS":"546.307","ARG_OF_PERICENTER":"70.3325","OBJECT_NAME":"STARLINK-2405"},{"EPHEMERIS_TYPE":"0","SEMIMAJOR_AXIS":"6925.349","CLASSIFICATION_TYPE":"U","OBJECT_TYPE":"PAYLOAD","SITE":"AFETR","TLE_LINE2":"2 47977  53.0563  66.6503 0001035  76.9775 283.1329 15.06399895 41170","ELEMENT_SET_NO":"999","MEAN_MOTION_DDOT":"0.0000000000000","APOAPSIS":"547.931","MEAN_ELEMENT_THEORY":"SGP4","REF_FRAME":"TEME","LAUNCH_DATE":"2021-03-24","PERIAPSIS":"546.497","MEAN_MOTION_DOT":"-0.00000260","OBJECT_NAME":"STARLINK-2087","ARG_OF_PERICENTER":"76.9775","BSTAR":"0.00000141990000","RCS_SIZE":"LARGE","MEAN_MOTION":"15.06399895","OBJECT_ID":"2021-024A","RA_OF_ASC_NODE":"66.6503","TLE_LINE1":"1 47977U 21024A   21348.73908206 -.00000260  00000-0  14199-5 0  9994","PERIOD":"95.592","INCLINATION":"53.0563","TIME_SYSTEM":"UTC","COUNTRY_CODE":"US","EPOCH":"2021-12-14T17:44:16.689984","DECAY_DATE":null,"MEAN_ANOMALY":"283.1329","FILE":"3240192","CENTER_NAME":"EARTH","GP_ID":"191699792","ECCENTRICITY":"0.00010350","NORAD_CAT_ID":"47977","REV_AT_EPOCH":"4117"},{"SEMIMAJOR_AXIS":"6925.372","CLASSIFICATION_TYPE":"U","EPHEMERIS_TYPE":"0","OBJECT_TYPE":"PAYLOAD","MEAN_MOTION_DDOT":"0.0000000000000","ELEMENT_SET_NO":"999","SITE":"AFETR","TLE_LINE2":"2 47978  53.0548  77.4619 0001389  87.1175 272.9973 15.06392490 41526","MEAN_ELEMENT_THEORY":"SGP4","REF_FRAME":"TEME","APOAPSIS":"548.199","LAUNCH_DATE":"2021-03-24","ARG_OF_PERICENTER":"87.1175","OBJECT_NAME":"STARLINK-1647","PERIAPSIS":"546.275","MEAN_MOTION_DOT":"-0.00000296","RCS_SIZE":"LARGE","BSTAR":"-0.00000098618000","MEAN_MOTION":"15.06392490","RA_OF_ASC_NODE":"77.4619","OBJECT_ID":"2021-024B","TLE_LINE1":"1 47978U 21024B   21348.56123138 -.00000296  00000-0 -98618-6 0  9998","PERIOD":"95.593","INCLINATION":"53.0548","EPOCH":"2021-12-14T13:28:10.391232","COUNTRY_CODE":"US","TIME_SYSTEM":"UTC","FILE":"3240057","MEAN_ANOMALY":"272.9973","DECAY_DATE":null,"CENTER_NAME":"EARTH","GP_ID":"191694422","REV_AT_EPOCH":"4152","NORAD_CAT_ID":"47978","ECCENTRICITY":"0.00013890"},{"INCLINATION":"53.0526","PERIOD":"95.749","TIME_SYSTEM":"UTC","COUNTRY_CODE":"US","EPOCH":"2021-12-14T22:00:00.999936","OBJECT_ID":"2021-024C","MEAN_MOTION":"15.03936713","RA_OF_ASC_NODE":"10.2020","TLE_LINE1":"1 47979U 21024C   21348.91667824  .00038959  00000-0  27985-2 0  9993","ECCENTRICITY":"0.00012460","NORAD_CAT_ID":"47979","REV_AT_EPOCH":"4197","DECAY_DATE":null,"MEAN_ANOMALY":"22.1406","FILE":"3240193","CENTER_NAME":"EARTH","GP_ID":"191700306","TLE_LINE2":"2 47979  53.0526  10.2020 0001246  81.8326  22.1406 15.03936713 41979","SITE":"AFETR","ELEMENT_SET_NO":"999","MEAN_MOTION_DDOT":"0.0000000000000","APOAPSIS":"555.637","REF_FRAME":"TEME","MEAN_ELEMENT_THEORY":"SGP4","EPHEMERIS_TYPE":"0","SEMIMAJOR_AXIS":"6932.908","CLASSIFICATION_TYPE":"U","OBJECT_TYPE":"PAYLOAD","PERIAPSIS":"553.910","MEAN_MOTION_DOT":"0.00038959","OBJECT_NAME":"STARLINK-2325","ARG_OF_PERICENTER":"81.8326","BSTAR":"0.00279850000000","RCS_SIZE":"LARGE","LAUNCH_DATE":"2021-03-24"},{"MEAN_MOTION":"15.05576037","OBJECT_ID":"2021-024D","RA_OF_ASC_NODE":"352.1451","TLE_LINE1":"1 47980U 21024D   21348.58334491 -.00005337  00000-0 -34746-3 0  9999","INCLINATION":"53.0541","PERIOD":"95.644","TIME_SYSTEM":"UTC","COUNTRY_CODE":"US","EPOCH":"2021-12-14T14:00:01.000224","MEAN_ANOMALY":"117.7861","FILE":"3239947","DECAY_DATE":null,"GP_ID":"191670225","CENTER_NAME":"EARTH","NORAD_CAT_ID":"47980","REV_AT_EPOCH":"4219","ECCENTRICITY":"0.00018040","CLASSIFICATION_TYPE":"U","SEMIMAJOR_AXIS":"6927.875","EPHEMERIS_TYPE":"0","OBJECT_TYPE":"PAYLOAD","MEAN_MOTION_DDOT":"0.0000000000000","TLE_LINE2":"2 47980  53.0541 352.1451 0001804  39.7488 117.7861 15.05576037 42197","SITE":"AFETR","ELEMENT_SET_NO":"999","MEAN_ELEMENT_THEORY":"SGP4","REF_FRAME":"TEME","APOAPSIS":"550.990","LAUNCH_DATE":"2021-03-24","OBJECT_NAME":"STARLINK-2312","ARG_OF_PERICENTER":"39.7488","PERIAPSIS":"548.490","MEAN_MOTION_DOT":"-0.00005337","BSTAR":"-0.00034746000000","RCS_SIZE":"LARGE"},{"TLE_LINE1":"1 47981U 21024E   21348.55017101 -.00000044  00000-0  15902-4 0  9996","MEAN_MOTION":"15.06399379","OBJECT_ID":"2021-024E","RA_OF_ASC_NODE":"77.5207","COUNTRY_CODE":"US","EPOCH":"2021-12-14T13:12:14.775264","TIME_SYSTEM":"UTC","PERIOD":"95.592","INCLINATION":"53.0564","GP_ID":"191694672","CENTER_NAME":"EARTH","FILE":"3240057","MEAN_ANOMALY":"272.8737","DECAY_DATE":null,"REV_AT_EPOCH":"4152","NORAD_CAT_ID":"47981","ECCENTRICITY":"0.00011960","OBJECT_TYPE":"PAYLOAD","CLASSIFICATION_TYPE":"U","SEMIMAJOR_AXIS":"6925.350","EPHEMERIS_TYPE":"0","MEAN_ELEMENT_THEORY":"SGP4","REF_FRAME":"TEME","APOAPSIS":"548.044","MEAN_MOTION_DDOT":"0.0000000000000","ELEMENT_SET_NO":"999","SITE":"AFETR","TLE_LINE2":"2 47981  53.0564  77.5207 0001196  87.2388 272.8737 15.06399379 41525","LAUNCH_DATE":"2021-03-24","RCS_SIZE":"LARGE","BSTAR":"0.00001590200000","ARG_OF_PERICENTER":"87.2388","OBJECT_NAME":"STARLINK-2303","PERIAPSIS":"546.387","MEAN_MOTION_DOT":"-0.00000044"},{"TLE_LINE1":"1 47982U 21024F   21348.58334491 -.00014817  00000-0 -10217-2 0  9990","RA_OF_ASC_NODE":"7.1445","MEAN_MOTION":"15.04779029","OBJECT_ID":"2021-024F","COUNTRY_CODE":"US","EPOCH":"2021-12-14T14:00:01.000224","TIME_SYSTEM":"UTC","PERIOD":"95.695","INCLINATION":"53.0539","CENTER_NAME":"EARTH","GP_ID":"191670240","DECAY_DATE":null,"FILE":"3239948","MEAN_ANOMALY":"348.4766","ECCENTRICITY":"0.00022150","REV_AT_EPOCH":"4198","NORAD_CAT_ID":"47982","OBJECT_TYPE":"PAYLOAD","EPHEMERIS_TYPE":"0","SEMIMAJOR_AXIS":"6930.321","CLASSIFICATION_TYPE":"U","APOAPSIS":"553.721","MEAN_ELEMENT_THEORY":"SGP4","REF_FRAME":"TEME","ELEMENT_SET_NO":"999","SITE":"AFETR","TLE_LINE2":"2 47982  53.0539   7.1445 0002215  46.4139 348.4766 15.04779029 41989","MEAN_MOTION_DDOT":"0.0000000000000","LAUNCH_DATE":"2021-03-24","RCS_SIZE":"LARGE","BSTAR":"-0.00102170000000","MEAN_MOTION_DOT":"-0.00014817","PERIAPSIS":"550.651","ARG_OF_PERICENTER":"46.4139","OBJECT_NAME":"STARLINK-2317"},{"LAUNCH_DATE":"2021-03-24","PERIAPSIS":"298.680","MEAN_MOTION_DOT":"-0.00073602","OBJECT_NAME":"STARLINK-2289","ARG_OF_PERICENTER":"42.2092","BSTAR":"-0.00021756000000","RCS_SIZE":"LARGE","EPHEMERIS_TYPE":"0","SEMIMAJOR_AXIS":"6677.764","CLASSIFICATION_TYPE":"U","OBJECT_TYPE":"PAYLOAD","SITE":"AFETR","TLE_LINE2":"2 47983  53.0462 324.0121 0001420  42.2092  72.9643 15.90948766  3719","ELEMENT_SET_NO":"999","MEAN_MOTION_DDOT":"0.0000127250000","APOAPSIS":"300.577","REF_FRAME":"TEME","MEAN_ELEMENT_THEORY":"SGP4","DECAY_DATE":null,"MEAN_ANOMALY":"72.9643","FILE":"3240057","GP_ID":"191695174","CENTER_NAME":"EARTH","ECCENTRICITY":"0.00014200","NORAD_CAT_ID":"47983","REV_AT_EPOCH":"371","OBJECT_ID":"2021-024G","RA_OF_ASC_NODE":"324.0121","MEAN_MOTION":"15.90948766","TLE_LINE1":"1 47983U 21024G   21348.58334491 -.00073602  12725-4 -21756-3 0  9990","INCLINATION":"53.0462","PERIOD":"90.512","TIME_SYSTEM":"UTC","COUNTRY_CODE":"US","EPOCH":"2021-12-14T14:00:01.000224"},{"REV_AT_EPOCH":"4258","NORAD_CAT_ID":"47984","ECCENTRICITY":"0.00011350","GP_ID":"191699815","CENTER_NAME":"EARTH","FILE":"3240200","MEAN_ANOMALY":"344.7302","DECAY_DATE":null,"EPOCH":"2021-12-14T22:00:00.999936","COUNTRY_CODE":"US","TIME_SYSTEM":"UTC","PERIOD":"90.766","INCLINATION":"53.0545","TLE_LINE1":"1 47984U 21024H   21348.91667824  .00710495  00000-0  25422-2 0  9995","MEAN_MOTION":"15.86505209","OBJECT_ID":"2021-024H","RA_OF_ASC_NODE":"325.5059","RCS_SIZE":"LARGE","BSTAR":"0.00254220000000","ARG_OF_PERICENTER":"112.0290","OBJECT_NAME":"STARLINK-2316","MEAN_MOTION_DOT":"0.00710495","PERIAPSIS":"311.332","LAUNCH_DATE":"2021-03-24","MEAN_ELEMENT_THEORY":"SGP4","REF_FRAME":"TEME","APOAPSIS":"312.851","MEAN_MOTION_DDOT":"0.0000000000000","ELEMENT_SET_NO":"999","TLE_LINE2":"2 47984  53.0545 325.5059 0001135 112.0290 344.7302 15.86505209 42583","SITE":"AFETR","OBJECT_TYPE":"PAYLOAD","SEMIMAJOR_AXIS":"6690.227","EPHEMERIS_TYPE":"0","CLASSIFICATION_TYPE":"U"},{"LAUNCH_DATE":"2021-03-24","BSTAR":"0.00298210000000","RCS_SIZE":"LARGE","MEAN_MOTION_DOT":"0.00042449","PERIAPSIS":"551.152","OBJECT_NAME":"STARLINK-2308","ARG_OF_PERICENTER":"67.2328","OBJECT_TYPE":"PAYLOAD","SEMIMAJOR_AXIS":"6930.467","CLASSIFICATION_TYPE":"U","EPHEMERIS_TYPE":"0","APOAPSIS":"553.512","MEAN_ELEMENT_THEORY":"SGP4","REF_FRAME":"TEME","TLE_LINE2":"2 47985  53.0557  10.2727 0001703  67.2328 225.9573 15.04731549 41960","SITE":"AFETR","ELEMENT_SET_NO":"999","MEAN_MOTION_DDOT":"0.0000000000000","GP_ID":"191700320","CENTER_NAME":"EARTH","DECAY_DATE":null,"MEAN_ANOMALY":"225.9573","FILE":"3240200","ECCENTRICITY":"0.00017030","NORAD_CAT_ID":"47985","REV_AT_EPOCH":"4196","TLE_LINE1":"1 47985U 21024J   21348.91667824  .00042449  00000-0  29821-2 0  9990","OBJECT_ID":"2021-024J","MEAN_MOTION":"15.04731549","RA_OF_ASC_NODE":"10.2727","TIME_SYSTEM":"UTC","COUNTRY_CODE":"US","EPOCH":"2021-12-14T22:00:00.999936","INCLINATION":"53.0557","PERIOD":"95.698"}];
